[{"OBJECT_NAME":"ONEWEB-0461","OBJECT_ID":"2022-012AD","EPOCH":"2026-03-06T20:48:40.303296","MEAN_MOTION":13.17650826,"ECCENTRICITY":0.0002023,"INCLINATION":87.9165,"RA_OF_ASC_NODE":26.1665,"ARG_OF_PERICENTER":78.0362,"MEAN_ANOMALY":282.0996,"EPHEMERIS_TYPE":0,"CLASSIFICATION_TYPE":"U","NORAD_CAT_ID":51649,"ELEMENT_SET_NO":999,"REV_AT_EPOCH":20041,"BSTAR":0.00027887,"MEAN_MOTION_DOT":1.21e-6,"MEAN_MOTION_DDOT":0},{"OBJECT_NAME":"ONEWEB-0463","OBJECT_ID":"2022-012AE","EPOCH":"2026-03-06T20:21:57.947904","MEAN_MOTION":13.17648476,"ECCENTRICITY":0.0001988,"INCLINATION":87.9144,"RA_OF_ASC_NODE":26.203,"ARG_OF_PERICENTER":79.5528,"MEAN_ANOMALY":280.5827,"EPHEMERIS_TYPE":0,"CLASSIFICATION_TYPE":"U","NORAD_CAT_ID":51650,"ELEMENT_SET_NO":999,"REV_AT_EPOCH":20019,"BSTAR":-4.9393e-6,"MEAN_MOTION_DOT":1.1e-7,"MEAN_MOTION_DDOT":0},{"OBJECT_NAME":"ONEWEB-0464","OBJECT_ID":"2022-012AF","EPOCH":"2026-03-06T07:58:12.429120","MEAN_MOTION":13.10376243,"ECCENTRICITY":0.00017585,"INCLINATION":87.877,"RA_OF_ASC_NODE":56.7628,"ARG_OF_PERICENTER":94.6125,"MEAN_ANOMALY":265.5203,"EPHEMERIS_TYPE":0,"CLASSIFICATION_TYPE":"U","NORAD_CAT_ID":51651,"ELEMENT_SET_NO":999,"REV_AT_EPOCH":19585,"BSTAR":0.0006629589,"MEAN_MOTION_DOT":2.44e-6,"MEAN_MOTION_DDOT":0},{"OBJECT_NAME":"ONEWEB-0468","OBJECT_ID":"2022-012AG","EPOCH":"2026-03-06T09:57:43.617888","MEAN_MOTION":13.10373997,"ECCENTRICITY":0.0001668,"INCLINATION":87.8765,"RA_OF_ASC_NODE":56.7409,"ARG_OF_PERICENTER":96.0868,"MEAN_ANOMALY":264.045,"EPHEMERIS_TYPE":0,"CLASSIFICATION_TYPE":"U","NORAD_CAT_ID":51652,"ELEMENT_SET_NO":999,"REV_AT_EPOCH":19584,"BSTAR":0.0016059392,"MEAN_MOTION_DOT":5.73e-6,"MEAN_MOTION_DDOT":0},{"OBJECT_NAME":"ONEWEB-0473","OBJECT_ID":"2022-012AH","EPOCH":"2026-03-06T09:36:11.592288","MEAN_MOTION":13.10377217,"ECCENTRICITY":0.00017015,"INCLINATION":87.8771,"RA_OF_ASC_NODE":56.745,"ARG_OF_PERICENTER":86.5348,"MEAN_ANOMALY":273.5974,"EPHEMERIS_TYPE":0,"CLASSIFICATION_TYPE":"U","NORAD_CAT_ID":51653,"ELEMENT_SET_NO":999,"REV_AT_EPOCH":19584,"BSTAR":-0.00040255594,"MEAN_MOTION_DOT":-1.28e-6,"MEAN_MOTION_DDOT":0},{"OBJECT_NAME":"ONEWEB-0474","OBJECT_ID":"2022-012AJ","EPOCH":"2026-03-06T09:24:14.442048","MEAN_MOTION":13.10375427,"ECCENTRICITY":0.00016825,"INCLINATION":87.8778,"RA_OF_ASC_NODE":56.722,"ARG_OF_PERICENTER":95.5934,"MEAN_ANOMALY":264.5385,"EPHEMERIS_TYPE":0,"CLASSIFICATION_TYPE":"U","NORAD_CAT_ID":51654,"ELEMENT_SET_NO":999,"REV_AT_EPOCH":19583,"BSTAR":-0.0015158675,"MEAN_MOTION_DOT":-5.16e-6,"MEAN_MOTION_DDOT":0},{"OBJECT_NAME":"ONEWEB-0475","OBJECT_ID":"2022-012AK","EPOCH":"2026-03-06T15:10:55.689600","MEAN_MOTION":13.17648533,"ECCENTRICITY":0.0001305,"INCLINATION":87.9147,"RA_OF_ASC_NODE":26.2375,"ARG_OF_PERICENTER":96.3601,"MEAN_ANOMALY":263.7679,"EPHEMERIS_TYPE":0,"CLASSIFICATION_TYPE":"U","NORAD_CAT_ID":51655,"ELEMENT_SET_NO":999,"REV_AT_EPOCH":20018,"BSTAR":0.00021652179,"MEAN_MOTION_DOT":9.7e-7,"MEAN_MOTION_DDOT":0},{"OBJECT_NAME":"ONEWEB-0490","OBJECT_ID":"2022-138A","EPOCH":"2026-03-06T11:29:14.761248","MEAN_MOTION":13.19724932,"ECCENTRICITY":0.00016898,"INCLINATION":87.9242,"RA_OF_ASC_NODE":325.425,"ARG_OF_PERICENTER":86.313,"MEAN_ANOMALY":273.8196,"EPHEMERIS_TYPE":0,"CLASSIFICATION_TYPE":"U","NORAD_CAT_ID":54113,"ELEMENT_SET_NO":999,"REV_AT_EPOCH":16328,"BSTAR":-0.00028279362,"MEAN_MOTION_DOT":-1.0e-6,"MEAN_MOTION_DDOT":0},{"OBJECT_NAME":"ONEWEB-0492","OBJECT_ID":"2022-138B","EPOCH":"2026-03-06T04:48:55.886112","MEAN_MOTION":13.19726892,"ECCENTRICITY":0.0001813,"INCLINATION":87.9236,"RA_OF_ASC_NODE":325.4882,"ARG_OF_PERICENTER":85.2891,"MEAN_ANOMALY":274.8449,"EPHEMERIS_TYPE":0,"CLASSIFICATION_TYPE":"U","NORAD_CAT_ID":54114,"ELEMENT_SET_NO":999,"REV_AT_EPOCH":16325,"BSTAR":0.00019218538,"MEAN_MOTION_DOT":9.0e-7,"MEAN_MOTION_DDOT":0},{"OBJECT_NAME":"ONEWEB-0495","OBJECT_ID":"2022-138C","EPOCH":"2026-03-06T06:06:15.208416","MEAN_MOTION":13.19727972,"ECCENTRICITY":0.00017013,"INCLINATION":87.9231,"RA_OF_ASC_NODE":325.4795,"ARG_OF_PERICENTER":103.5829,"MEAN_ANOMALY":256.5493,"EPHEMERIS_TYPE":0,"CLASSIFICATION_TYPE":"U","NORAD_CAT_ID":54115,"ELEMENT_SET_NO":999,"REV_AT_EPOCH":16324,"BSTAR":8.8808397e-5,"MEAN_MOTION_DOT":4.8e-7,"MEAN_MOTION_DDOT":0},{"OBJECT_NAME":"ONEWEB-0497","OBJECT_ID":"2022-138D","EPOCH":"2026-03-06T10:02:48.520032","MEAN_MOTION":13.19727002,"ECCENTRICITY":0.00016751,"INCLINATION":87.9235,"RA_OF_ASC_NODE":325.4372,"ARG_OF_PERICENTER":81.7189,"MEAN_ANOMALY":278.4133,"EPHEMERIS_TYPE":0,"CLASSIFICATION_TYPE":"U","NORAD_CAT_ID":54116,"ELEMENT_SET_NO":999,"REV_AT_EPOCH":16325,"BSTAR":0.00034358042,"MEAN_MOTION_DOT":1.5e-6,"MEAN_MOTION_DDOT":0},{"OBJECT_NAME":"ONEWEB-0499","OBJECT_ID":"2022-138E","EPOCH":"2026-03-06T06:00:34.605792","MEAN_MOTION":13.19725923,"ECCENTRICITY":0.00014357,"INCLINATION":87.9236,"RA_OF_ASC_NODE":325.4803,"ARG_OF_PERICENTER":81.4677,"MEAN_ANOMALY":278.6618,"EPHEMERIS_TYPE":0,"CLASSIFICATION_TYPE":"U","NORAD_CAT_ID":54117,"ELEMENT_SET_NO":999,"REV_AT_EPOCH":16324,"BSTAR":0.0001333812,"MEAN_MOTION_DOT":6.6e-7,"MEAN_MOTION_DDOT":0},{"OBJECT_NAME":"ONEWEB-0500","OBJECT_ID":"2022-138F","EPOCH":"2026-03-06T06:03:58.934016","MEAN_MOTION":13.19726991,"ECCENTRICITY":0.00018044,"INCLINATION":87.9235,"RA_OF_ASC_NODE":325.47,"ARG_OF_PERICENTER":80.8564,"MEAN_ANOMALY":279.2773,"EPHEMERIS_TYPE":0,"CLASSIFICATION_TYPE":"U","NORAD_CAT_ID":54118,"ELEMENT_SET_NO":999,"REV_AT_EPOCH":16325,"BSTAR":0.00016909977,"MEAN_MOTION_DOT":8.1e-7,"MEAN_MOTION_DDOT":0},{"OBJECT_NAME":"ONEWEB-0501","OBJECT_ID":"2022-138G","EPOCH":"2026-03-06T15:53:05.796096","MEAN_MOTION":13.19726017,"ECCENTRICITY":0.00016285,"INCLINATION":87.9233,"RA_OF_ASC_NODE":325.3895,"ARG_OF_PERICENTER":92.7563,"MEAN_ANOMALY":267.3756,"EPHEMERIS_TYPE":0,"CLASSIFICATION_TYPE":"U","NORAD_CAT_ID":54119,"ELEMENT_SET_NO":999,"REV_AT_EPOCH":16328,"BSTAR":0.00011575434,"MEAN_MOTION_DOT":5.9e-7,"MEAN_MOTION_DDOT":0},{"OBJECT_NAME":"ONEWEB-0502","OBJECT_ID":"2022-138H","EPOCH":"2026-03-06T10:05:05.069184","MEAN_MOTION":13.19727038,"ECCENTRICITY":0.0001459,"INCLINATION":87.9243,"RA_OF_ASC_NODE":325.4218,"ARG_OF_PERICENTER":86.5483,"MEAN_ANOMALY":273.5817,"EPHEMERIS_TYPE":0,"CLASSIFICATION_TYPE":"U","NORAD_CAT_ID":54120,"ELEMENT_SET_NO":999,"REV_AT_EPOCH":16327,"BSTAR":0.00039462731,"MEAN_MOTION_DOT":1.71e-6,"MEAN_MOTION_DDOT":0},{"OBJECT_NAME":"ONEWEB-0503","OBJECT_ID":"2022-138J","EPOCH":"2026-03-06T06:10:48.734400","MEAN_MOTION":13.19726143,"ECCENTRICITY":0.00014757,"INCLINATION":87.9243,"RA_OF_ASC_NODE":325.4581,"ARG_OF_PERICENTER":74.7962,"MEAN_ANOMALY":285.3334,"EPHEMERIS_TYPE":0,"CLASSIFICATION_TYPE":"U","NORAD_CAT_ID":54121,"ELEMENT_SET_NO":999,"REV_AT_EPOCH":16324,"BSTAR":1.6962161e-5,"MEAN_MOTION_DOT":2.0e-7,"MEAN_MOTION_DDOT":0},{"OBJECT_NAME":"ONEWEB-0504","OBJECT_ID":"2022-138K","EPOCH":"2026-03-06T11:20:09.105504","MEAN_MOTION":13.19726111,"ECCENTRICITY":0.00014844,"INCLINATION":87.9238,"RA_OF_ASC_NODE":325.4259,"ARG_OF_PERICENTER":88.4724,"MEAN_ANOMALY":271.6579,"EPHEMERIS_TYPE":0,"CLASSIFICATION_TYPE":"U","NORAD_CAT_ID":54122,"ELEMENT_SET_NO":999,"REV_AT_EPOCH":16328,"BSTAR":-4.8118693e-5,"MEAN_MOTION_DOT":-6.0e-8,"MEAN_MOTION_DDOT":0},{"OBJECT_NAME":"ONEWEB-0505","OBJECT_ID":"2022-138L","EPOCH":"2026-03-06T11:15:35.946720","MEAN_MOTION":13.19725923,"ECCENTRICITY":0.00015067,"INCLINATION":87.9246,"RA_OF_ASC_NODE":325.4227,"ARG_OF_PERICENTER":98.59,"MEAN_ANOMALY":261.5403,"EPHEMERIS_TYPE":0,"CLASSIFICATION_TYPE":"U","NORAD_CAT_ID":54123,"ELEMENT_SET_NO":999,"REV_AT_EPOCH":16326,"BSTAR":4.9793471e-5,"MEAN_MOTION_DOT":3.3e-7,"MEAN_MOTION_DDOT":0},{"OBJECT_NAME":"ONEWEB-0506","OBJECT_ID":"2022-138M","EPOCH":"2026-03-06T05:11:40.789248","MEAN_MOTION":13.19726934,"ECCENTRICITY":0.00015585,"INCLINATION":87.9246,"RA_OF_ASC_NODE":325.4701,"ARG_OF_PERICENTER":89.4908,"MEAN_ANOMALY":270.6403,"EPHEMERIS_TYPE":0,"CLASSIFICATION_TYPE":"U","NORAD_CAT_ID":54124,"ELEMENT_SET_NO":999,"REV_AT_EPOCH":16322,"BSTAR":0.00014346928,"MEAN_MOTION_DOT":7.0e-7,"MEAN_MOTION_DDOT":0},{"OBJECT_NAME":"ONEWEB-0507","OBJECT_ID":"2022-138N","EPOCH":"2026-03-06T05:41:14.163072","MEAN_MOTION":13.19726851,"ECCENTRICITY":0.00016609,"INCLINATION":87.9233,"RA_OF_ASC_NODE":325.4884,"ARG_OF_PERICENTER":86.936,"MEAN_ANOMALY":273.1963,"EPHEMERIS_TYPE":0,"CLASSIFICATION_TYPE":"U","NORAD_CAT_ID":54125,"ELEMENT_SET_NO":999,"REV_AT_EPOCH":16327,"BSTAR":7.0406711e-5,"MEAN_MOTION_DOT":4.1e-7,"MEAN_MOTION_DDOT":0},{"OBJECT_NAME":"ONEWEB-0508","OBJECT_ID":"2022-138P","EPOCH":"2026-03-06T11:04:12.838944","MEAN_MOTION":13.19724366,"ECCENTRICITY":0.00018106,"INCLINATION":87.9236,"RA_OF_ASC_NODE":325.4427,"ARG_OF_PERICENTER":95.5254,"MEAN_ANOMALY":264.6086,"EPHEMERIS_TYPE":0,"CLASSIFICATION_TYPE":"U","NORAD_CAT_ID":54126,"ELEMENT_SET_NO":999,"REV_AT_EPOCH":16328,"BSTAR":0.00016779987,"MEAN_MOTION_DOT":8.0e-7,"MEAN_MOTION_DDOT":0},{"OBJECT_NAME":"ONEWEB-0509","OBJECT_ID":"2022-138Q","EPOCH":"2026-03-06T15:55:21.490752","MEAN_MOTION":13.1972371,"ECCENTRICITY":0.00016691,"INCLINATION":87.9244,"RA_OF_ASC_NODE":325.3822,"ARG_OF_PERICENTER":83.997,"MEAN_ANOMALY":276.1353,"EPHEMERIS_TYPE":0,"CLASSIFICATION_TYPE":"U","NORAD_CAT_ID":54127,"ELEMENT_SET_NO":999,"REV_AT_EPOCH":16328,"BSTAR":5.9965586e-5,"MEAN_MOTION_DOT":3.7e-7,"MEAN_MOTION_DDOT":0},{"OBJECT_NAME":"ONEWEB-0510","OBJECT_ID":"2022-138R","EPOCH":"2026-03-06T07:54:29.780640","MEAN_MOTION":13.20770095,"ECCENTRICITY":0.00017056,"INCLINATION":87.9175,"RA_OF_ASC_NODE":294.9727,"ARG_OF_PERICENTER":69.4522,"MEAN_ANOMALY":290.6794,"EPHEMERIS_TYPE":0,"CLASSIFICATION_TYPE":"U","NORAD_CAT_ID":54128,"ELEMENT_SET_NO":999,"REV_AT_EPOCH":16570,"BSTAR":0.00020082652,"MEAN_MOTION_DOT":9.5e-7,"MEAN_MOTION_DDOT":0}]
